CCSDS_OMM_VERS = 2.0
CREATION_DATE  = 
ORIGINATOR     = 

OBJECT_NAME    = QIANFAN-96
OBJECT_ID      = 2025-233F
CENTER_NAME    = EARTH
REF_FRAME      = TEME
TIME_SYSTEM    = UTC
MEAN_ELEMENT_THEORY = SGP/SGP4

EPOCH          = 2025-11-03T21:10:17.181984
MEAN_MOTION    = 14.26154306
ECCENTRICITY   = .0015938
INCLINATION    = 88.9950
RA_OF_ASC_NODE = 66.5036
ARG_OF_PERICENTER = 157.8680
MEAN_ANOMALY   = 202.3205

EPHEMERIS_TYPE = 0
CLASSIFICATION_TYPE = U
NORAD_CAT_ID   = 66038
ELEMENT_SET_NO = 999
REV_AT_EPOCH   = 250
BSTAR          = .27703588E-3
MEAN_MOTION_DOT = .678E-5
MEAN_MOTION_DDOT = 0

CCSDS_OMM_VERS = 2.0
CREATION_DATE  = 
ORIGINATOR     = 

OBJECT_NAME    = QIANFAN-97
OBJECT_ID      = 2025-233G
CENTER_NAME    = EARTH
REF_FRAME      = TEME
TIME_SYSTEM    = UTC
MEAN_ELEMENT_THEORY = SGP/SGP4

EPOCH          = 2025-11-03T21:10:09.308352
MEAN_MOTION    = 14.26160245
ECCENTRICITY   = .00155077
INCLINATION    = 88.9950
RA_OF_ASC_NODE = 66.5036
ARG_OF_PERICENTER = 157.2996
MEAN_ANOMALY   = 202.8886

EPHEMERIS_TYPE = 0
CLASSIFICATION_TYPE = U
NORAD_CAT_ID   = 66039
ELEMENT_SET_NO = 999
REV_AT_EPOCH   = 250
BSTAR          = .28021774E-3
MEAN_MOTION_DOT = .686E-5
MEAN_MOTION_DDOT = 0

CCSDS_OMM_VERS = 2.0
CREATION_DATE  = 
ORIGINATOR     = 

OBJECT_NAME    = QIANFAN-98
OBJECT_ID      = 2025-233H
CENTER_NAME    = EARTH
REF_FRAME      = TEME
TIME_SYSTEM    = UTC
MEAN_ELEMENT_THEORY = SGP/SGP4

EPOCH          = 2025-11-03T21:09:49.082112
MEAN_MOTION    = 14.26181701
ECCENTRICITY   = .00151424
INCLINATION    = 88.9950
RA_OF_ASC_NODE = 66.5037
ARG_OF_PERICENTER = 156.0360
MEAN_ANOMALY   = 204.1541

EPHEMERIS_TYPE = 0
CLASSIFICATION_TYPE = U
NORAD_CAT_ID   = 66040
ELEMENT_SET_NO = 999
REV_AT_EPOCH   = 250
BSTAR          = .27773068E-3
MEAN_MOTION_DOT = .68E-5
MEAN_MOTION_DDOT = 0

CCSDS_OMM_VERS = 2.0
CREATION_DATE  = 
ORIGINATOR     = 

OBJECT_NAME    = QIANFAN-99
OBJECT_ID      = 2025-233J
CENTER_NAME    = EARTH
REF_FRAME      = TEME
TIME_SYSTEM    = UTC
MEAN_ELEMENT_THEORY = SGP/SGP4

EPOCH          = 2025-11-03T21:09:38.714976
MEAN_MOTION    = 14.26197184
ECCENTRICITY   = .00152832
INCLINATION    = 88.9949
RA_OF_ASC_NODE = 66.5035
ARG_OF_PERICENTER = 155.1483
MEAN_ANOMALY   = 205.0450

EPHEMERIS_TYPE = 0
CLASSIFICATION_TYPE = U
NORAD_CAT_ID   = 66041
ELEMENT_SET_NO = 999
REV_AT_EPOCH   = 250
BSTAR          = .2805026E-3
MEAN_MOTION_DOT = .687E-5
MEAN_MOTION_DDOT = 0

CCSDS_OMM_VERS = 2.0
CREATION_DATE  = 
ORIGINATOR     = 

OBJECT_NAME    = QIANFAN-100
OBJECT_ID      = 2025-233K
CENTER_NAME    = EARTH
REF_FRAME      = TEME
TIME_SYSTEM    = UTC
MEAN_ELEMENT_THEORY = SGP/SGP4

EPOCH          = 2025-11-03T21:09:33.238944
MEAN_MOTION    = 14.26212772
ECCENTRICITY   = .00157345
INCLINATION    = 88.9950
RA_OF_ASC_NODE = 66.5036
ARG_OF_PERICENTER = 156.8462
MEAN_ANOMALY   = 203.3444

EPHEMERIS_TYPE = 0
CLASSIFICATION_TYPE = U
NORAD_CAT_ID   = 66042
ELEMENT_SET_NO = 999
REV_AT_EPOCH   = 250
BSTAR          = .2759401E-3
MEAN_MOTION_DOT = .676E-5
MEAN_MOTION_DDOT = 0

CCSDS_OMM_VERS = 2.0
CREATION_DATE  = 
ORIGINATOR     = 

OBJECT_NAME    = QIANFAN-101
OBJECT_ID      = 2025-233L
CENTER_NAME    = EARTH
REF_FRAME      = TEME
TIME_SYSTEM    = UTC
MEAN_ELEMENT_THEORY = SGP/SGP4

EPOCH          = 2025-11-03T21:06:28.254816
MEAN_MOTION    = 14.26634100
ECCENTRICITY   = .00156666
INCLINATION    = 88.9950
RA_OF_ASC_NODE = 66.5032
ARG_OF_PERICENTER = 155.0925
MEAN_ANOMALY   = 205.1028

EPHEMERIS_TYPE = 0
CLASSIFICATION_TYPE = U
NORAD_CAT_ID   = 66043
ELEMENT_SET_NO = 999
REV_AT_EPOCH   = 250
BSTAR          = .18215462E-3
MEAN_MOTION_DOT = .455E-5
MEAN_MOTION_DDOT = 0

CCSDS_OMM_VERS = 2.0
CREATION_DATE  = 
ORIGINATOR     = 

OBJECT_NAME    = QIANFAN-102
OBJECT_ID      = 2025-233M
CENTER_NAME    = EARTH
REF_FRAME      = TEME
TIME_SYSTEM    = UTC
MEAN_ELEMENT_THEORY = SGP/SGP4

EPOCH          = 2025-11-03T21:09:24.384672
MEAN_MOTION    = 14.26216926
ECCENTRICITY   = .00161024
INCLINATION    = 88.9949
RA_OF_ASC_NODE = 66.5035
ARG_OF_PERICENTER = 156.9453
MEAN_ANOMALY   = 203.2467

EPHEMERIS_TYPE = 0
CLASSIFICATION_TYPE = U
NORAD_CAT_ID   = 66044
ELEMENT_SET_NO = 999
REV_AT_EPOCH   = 250
BSTAR          = .2849186E-3
MEAN_MOTION_DOT = .698E-5
MEAN_MOTION_DDOT = 0

CCSDS_OMM_VERS = 2.0
CREATION_DATE  = 
ORIGINATOR     = 

OBJECT_NAME    = QIANFAN-103
OBJECT_ID      = 2025-233N
CENTER_NAME    = EARTH
REF_FRAME      = TEME
TIME_SYSTEM    = UTC
MEAN_ELEMENT_THEORY = SGP/SGP4

EPOCH          = 2025-11-03T22:50:02.503104
MEAN_MOTION    = 14.26246240
ECCENTRICITY   = .00155007
INCLINATION    = 88.9950
RA_OF_ASC_NODE = 66.4956
ARG_OF_PERICENTER = 155.4894
MEAN_ANOMALY   = 204.7040

EPHEMERIS_TYPE = 0
CLASSIFICATION_TYPE = U
NORAD_CAT_ID   = 66045
ELEMENT_SET_NO = 999
REV_AT_EPOCH   = 251
BSTAR          = .28454215E-3
MEAN_MOTION_DOT = .697E-5
MEAN_MOTION_DDOT = 0

CCSDS_OMM_VERS = 2.0
CREATION_DATE  = 
ORIGINATOR     = 

OBJECT_NAME    = QIANFAN-104
OBJECT_ID      = 2025-233P
CENTER_NAME    = EARTH
REF_FRAME      = TEME
TIME_SYSTEM    = UTC
MEAN_ELEMENT_THEORY = SGP/SGP4

EPOCH          = 2025-11-03T21:08:43.331712
MEAN_MOTION    = 14.26266904
ECCENTRICITY   = .00154722
INCLINATION    = 88.9950
RA_OF_ASC_NODE = 66.5036
ARG_OF_PERICENTER = 157.9756
MEAN_ANOMALY   = 202.2106

EPHEMERIS_TYPE = 0
CLASSIFICATION_TYPE = U
NORAD_CAT_ID   = 66046
ELEMENT_SET_NO = 999
REV_AT_EPOCH   = 250
BSTAR          = .28787789E-3
MEAN_MOTION_DOT = .705E-5
MEAN_MOTION_DDOT = 0

CCSDS_OMM_VERS = 2.0
CREATION_DATE  = 
ORIGINATOR     = 

OBJECT_NAME    = QIANFAN-105
OBJECT_ID      = 2025-233Q
CENTER_NAME    = EARTH
REF_FRAME      = TEME
TIME_SYSTEM    = UTC
MEAN_ELEMENT_THEORY = SGP/SGP4

EPOCH          = 2025-11-03T21:08:15.160128
MEAN_MOTION    = 14.26325309
ECCENTRICITY   = .00156468
INCLINATION    = 88.9949
RA_OF_ASC_NODE = 66.5033
ARG_OF_PERICENTER = 158.1134
MEAN_ANOMALY   = 202.0731

EPHEMERIS_TYPE = 0
CLASSIFICATION_TYPE = U
NORAD_CAT_ID   = 66047
ELEMENT_SET_NO = 999
REV_AT_EPOCH   = 250
BSTAR          = .286752E-3
MEAN_MOTION_DOT = .704E-5
MEAN_MOTION_DDOT = 0

CCSDS_OMM_VERS = 2.0
CREATION_DATE  = 
ORIGINATOR     = 

OBJECT_NAME    = QIANFAN-106
OBJECT_ID      = 2025-233R
CENTER_NAME    = EARTH
REF_FRAME      = TEME
TIME_SYSTEM    = UTC
MEAN_ELEMENT_THEORY = SGP/SGP4

EPOCH          = 2025-11-03T21:08:15.955872
MEAN_MOTION    = 14.26308653
ECCENTRICITY   = .00155369
INCLINATION    = 88.9950
RA_OF_ASC_NODE = 66.5035
ARG_OF_PERICENTER = 157.7848
MEAN_ANOMALY   = 202.4022

EPHEMERIS_TYPE = 0
CLASSIFICATION_TYPE = U
NORAD_CAT_ID   = 66048
ELEMENT_SET_NO = 999
REV_AT_EPOCH   = 250
BSTAR          = .27839558E-3
MEAN_MOTION_DOT = .683E-5
MEAN_MOTION_DDOT = 0

CCSDS_OMM_VERS = 2.0
CREATION_DATE  = 
ORIGINATOR     = 

OBJECT_NAME    = QIANFAN-107
OBJECT_ID      = 2025-233S
CENTER_NAME    = EARTH
REF_FRAME      = TEME
TIME_SYSTEM    = UTC
MEAN_ELEMENT_THEORY = SGP/SGP4

EPOCH          = 2025-11-03T21:08:00.768480
MEAN_MOTION    = 14.26337525
ECCENTRICITY   = .00163285
INCLINATION    = 88.9949
RA_OF_ASC_NODE = 66.5034
ARG_OF_PERICENTER = 155.9521
MEAN_ANOMALY   = 204.2439

EPHEMERIS_TYPE = 0
CLASSIFICATION_TYPE = U
NORAD_CAT_ID   = 66049
ELEMENT_SET_NO = 999
REV_AT_EPOCH   = 250
BSTAR          = .28003998E-3
MEAN_MOTION_DOT = .688E-5
MEAN_MOTION_DDOT = 0

